<?xml version="1.0" encoding="UTF-8"?>
<ndm xmlns:xsi="http://www.w3.org/2001/XMLSchema-instance" xsi:noNamespaceSchemaLocation="https://sanaregistry.org/r/ndmxml_unqualified/ndmxml-2.0.0-master-2.0.xsd">
<omm id="CCSDS_OMM_VERS" version="2.0">
<header><CREATION_DATE/><ORIGINATOR/></header><body><segment><metadata><OBJECT_NAME>ORBCOMM FM37</OBJECT_NAME><OBJECT_ID>2008-031E</OBJECT_ID><CENTER_NAME>EARTH</CENTER_NAME><REF_FRAME>TEME</REF_FRAME><TIME_SYSTEM>UTC</TIME_SYSTEM><MEAN_ELEMENT_THEORY>SGP4</MEAN_ELEMENT_THEORY></metadata><data><meanElements><EPOCH>2024-10-14T20:17:17.187648</EPOCH><MEAN_MOTION>14.77789874</MEAN_MOTION><ECCENTRICITY>.0004933</ECCENTRICITY><INCLINATION>48.4394</INCLINATION><RA_OF_ASC_NODE>68.4551</RA_OF_ASC_NODE><ARG_OF_PERICENTER>36.2931</ARG_OF_PERICENTER><MEAN_ANOMALY>121.7115</MEAN_ANOMALY></meanElements><tleParameters><EPHEMERIS_TYPE>0</EPHEMERIS_TYPE><CLASSIFICATION_TYPE>U</CLASSIFICATION_TYPE><NORAD_CAT_ID>33064</NORAD_CAT_ID><ELEMENT_SET_NO>999</ELEMENT_SET_NO><REV_AT_EPOCH>87773</REV_AT_EPOCH><BSTAR>.6884E-3</BSTAR><MEAN_MOTION_DOT>.4791E-4</MEAN_MOTION_DOT><MEAN_MOTION_DDOT>0</MEAN_MOTION_DDOT></tleParameters></data></segment></body></omm>
<omm id="CCSDS_OMM_VERS" version="2.0">
<header><CREATION_DATE/><ORIGINATOR/></header><body><segment><metadata><OBJECT_NAME>ORBCOMM FM40</OBJECT_NAME><OBJECT_ID>2008-031F</OBJECT_ID><CENTER_NAME>EARTH</CENTER_NAME><REF_FRAME>TEME</REF_FRAME><TIME_SYSTEM>UTC</TIME_SYSTEM><MEAN_ELEMENT_THEORY>SGP4</MEAN_ELEMENT_THEORY></metadata><data><meanElements><EPOCH>2024-10-14T18:00:59.778432</EPOCH><MEAN_MOTION>14.79462887</MEAN_MOTION><ECCENTRICITY>.0006045</ECCENTRICITY><INCLINATION>48.4419</INCLINATION><RA_OF_ASC_NODE>56.5928</RA_OF_ASC_NODE><ARG_OF_PERICENTER>46.5030</ARG_OF_PERICENTER><MEAN_ANOMALY>95.6468</MEAN_ANOMALY></meanElements><tleParameters><EPHEMERIS_TYPE>0</EPHEMERIS_TYPE><CLASSIFICATION_TYPE>U</CLASSIFICATION_TYPE><NORAD_CAT_ID>33065</NORAD_CAT_ID><ELEMENT_SET_NO>999</ELEMENT_SET_NO><REV_AT_EPOCH>87778</REV_AT_EPOCH><BSTAR>.82278E-3</BSTAR><MEAN_MOTION_DOT>.6007E-4</MEAN_MOTION_DOT><MEAN_MOTION_DDOT>0</MEAN_MOTION_DDOT></tleParameters></data></segment></body></omm>
<omm id="CCSDS_OMM_VERS" version="2.0">
<header><CREATION_DATE/><ORIGINATOR/></header><body><segment><metadata><OBJECT_NAME>VESSELSAT 1</OBJECT_NAME><OBJECT_ID>2011-058C</OBJECT_ID><CENTER_NAME>EARTH</CENTER_NAME><REF_FRAME>TEME</REF_FRAME><TIME_SYSTEM>UTC</TIME_SYSTEM><MEAN_ELEMENT_THEORY>SGP4</MEAN_ELEMENT_THEORY></metadata><data><meanElements><EPOCH>2024-10-14T19:54:43.689312</EPOCH><MEAN_MOTION>14.11236256</MEAN_MOTION><ECCENTRICITY>.0013658</ECCENTRICITY><INCLINATION>19.9608</INCLINATION><RA_OF_ASC_NODE>138.4311</RA_OF_ASC_NODE><ARG_OF_PERICENTER>8.1571</ARG_OF_PERICENTER><MEAN_ANOMALY>351.9054</MEAN_ANOMALY></meanElements><tleParameters><EPHEMERIS_TYPE>0</EPHEMERIS_TYPE><CLASSIFICATION_TYPE>U</CLASSIFICATION_TYPE><NORAD_CAT_ID>37840</NORAD_CAT_ID><ELEMENT_SET_NO>999</ELEMENT_SET_NO><REV_AT_EPOCH>67160</REV_AT_EPOCH><BSTAR>.17613E-3</BSTAR><MEAN_MOTION_DOT>.587E-5</MEAN_MOTION_DOT><MEAN_MOTION_DDOT>0</MEAN_MOTION_DDOT></tleParameters></data></segment></body></omm>
<omm id="CCSDS_OMM_VERS" version="2.0">
<header><CREATION_DATE/><ORIGINATOR/></header><body><segment><metadata><OBJECT_NAME>ORBCOMM FM109</OBJECT_NAME><OBJECT_ID>2014-040A</OBJECT_ID><CENTER_NAME>EARTH</CENTER_NAME><REF_FRAME>TEME</REF_FRAME><TIME_SYSTEM>UTC</TIME_SYSTEM><MEAN_ELEMENT_THEORY>SGP4</MEAN_ELEMENT_THEORY></metadata><data><meanElements><EPOCH>2024-10-14T19:48:40.402368</EPOCH><MEAN_MOTION>14.57348487</MEAN_MOTION><ECCENTRICITY>.0002696</ECCENTRICITY><INCLINATION>47.0019</INCLINATION><RA_OF_ASC_NODE>94.4157</RA_OF_ASC_NODE><ARG_OF_PERICENTER>260.0537</ARG_OF_PERICENTER><MEAN_ANOMALY>100.0044</MEAN_ANOMALY></meanElements><tleParameters><EPHEMERIS_TYPE>0</EPHEMERIS_TYPE><CLASSIFICATION_TYPE>U</CLASSIFICATION_TYPE><NORAD_CAT_ID>40086</NORAD_CAT_ID><ELEMENT_SET_NO>999</ELEMENT_SET_NO><REV_AT_EPOCH>54526</REV_AT_EPOCH><BSTAR>.47972E-3</BSTAR><MEAN_MOTION_DOT>.2026E-4</MEAN_MOTION_DOT><MEAN_MOTION_DDOT>0</MEAN_MOTION_DDOT></tleParameters></data></segment></body></omm>
<omm id="CCSDS_OMM_VERS" version="2.0">
<header><CREATION_DATE/><ORIGINATOR/></header><body><segment><metadata><OBJECT_NAME>ORBCOMM FM107</OBJECT_NAME><OBJECT_ID>2014-040B</OBJECT_ID><CENTER_NAME>EARTH</CENTER_NAME><REF_FRAME>TEME</REF_FRAME><TIME_SYSTEM>UTC</TIME_SYSTEM><MEAN_ELEMENT_THEORY>SGP4</MEAN_ELEMENT_THEORY></metadata><data><meanElements><EPOCH>2024-10-14T20:39:55.365408</EPOCH><MEAN_MOTION>14.57291918</MEAN_MOTION><ECCENTRICITY>.0002116</ECCENTRICITY><INCLINATION>47.0033</INCLINATION><RA_OF_ASC_NODE>95.2529</RA_OF_ASC_NODE><ARG_OF_PERICENTER>239.1067</ARG_OF_PERICENTER><MEAN_ANOMALY>120.9610</MEAN_ANOMALY></meanElements><tleParameters><EPHEMERIS_TYPE>0</EPHEMERIS_TYPE><CLASSIFICATION_TYPE>U</CLASSIFICATION_TYPE><NORAD_CAT_ID>40087</NORAD_CAT_ID><ELEMENT_SET_NO>999</ELEMENT_SET_NO><REV_AT_EPOCH>54534</REV_AT_EPOCH><BSTAR>.53755E-3</BSTAR><MEAN_MOTION_DOT>.2288E-4</MEAN_MOTION_DOT><MEAN_MOTION_DDOT>0</MEAN_MOTION_DDOT></tleParameters></data></segment></body></omm>
<omm id="CCSDS_OMM_VERS" version="2.0">
<header><CREATION_DATE/><ORIGINATOR/></header><body><segment><metadata><OBJECT_NAME>ORBCOMM FM106</OBJECT_NAME><OBJECT_ID>2014-040C</OBJECT_ID><CENTER_NAME>EARTH</CENTER_NAME><REF_FRAME>TEME</REF_FRAME><TIME_SYSTEM>UTC</TIME_SYSTEM><MEAN_ELEMENT_THEORY>SGP4</MEAN_ELEMENT_THEORY></metadata><data><meanElements><EPOCH>2024-10-14T17:53:39.082272</EPOCH><MEAN_MOTION>14.67993310</MEAN_MOTION><ECCENTRICITY>.0017949</ECCENTRICITY><INCLINATION>47.0598</INCLINATION><RA_OF_ASC_NODE>297.1775</RA_OF_ASC_NODE><ARG_OF_PERICENTER>4.3556</ARG_OF_PERICENTER><MEAN_ANOMALY>355.7487</MEAN_ANOMALY></meanElements><tleParameters><EPHEMERIS_TYPE>0</EPHEMERIS_TYPE><CLASSIFICATION_TYPE>U</CLASSIFICATION_TYPE><NORAD_CAT_ID>40088</NORAD_CAT_ID><ELEMENT_SET_NO>999</ELEMENT_SET_NO><REV_AT_EPOCH>54739</REV_AT_EPOCH><BSTAR>.5283E-3</BSTAR><MEAN_MOTION_DOT>.2879E-4</MEAN_MOTION_DOT><MEAN_MOTION_DDOT>0</MEAN_MOTION_DDOT></tleParameters></data></segment></body></omm>
<omm id="CCSDS_OMM_VERS" version="2.0">
<header><CREATION_DATE/><ORIGINATOR/></header><body><segment><metadata><OBJECT_NAME>ORBCOMM FM111</OBJECT_NAME><OBJECT_ID>2014-040D</OBJECT_ID><CENTER_NAME>EARTH</CENTER_NAME><REF_FRAME>TEME</REF_FRAME><TIME_SYSTEM>UTC</TIME_SYSTEM><MEAN_ELEMENT_THEORY>SGP4</MEAN_ELEMENT_THEORY></metadata><data><meanElements><EPOCH>2024-10-14T20:44:40.471584</EPOCH><MEAN_MOTION>14.83450016</MEAN_MOTION><ECCENTRICITY>.0031766</ECCENTRICITY><INCLINATION>47.0024</INCLINATION><RA_OF_ASC_NODE>178.6807</RA_OF_ASC_NODE><ARG_OF_PERICENTER>100.9275</ARG_OF_PERICENTER><MEAN_ANOMALY>259.5197</MEAN_ANOMALY></meanElements><tleParameters><EPHEMERIS_TYPE>0</EPHEMERIS_TYPE><CLASSIFICATION_TYPE>U</CLASSIFICATION_TYPE><NORAD_CAT_ID>40089</NORAD_CAT_ID><ELEMENT_SET_NO>999</ELEMENT_SET_NO><REV_AT_EPOCH>55376</REV_AT_EPOCH><BSTAR>.78689E-3</BSTAR><MEAN_MOTION_DOT>.6387E-4</MEAN_MOTION_DOT><MEAN_MOTION_DDOT>0</MEAN_MOTION_DDOT></tleParameters></data></segment></body></omm>
<omm id="CCSDS_OMM_VERS" version="2.0">
<header><CREATION_DATE/><ORIGINATOR/></header><body><segment><metadata><OBJECT_NAME>ORBCOMM FM104</OBJECT_NAME><OBJECT_ID>2014-040E</OBJECT_ID><CENTER_NAME>EARTH</CENTER_NAME><REF_FRAME>TEME</REF_FRAME><TIME_SYSTEM>UTC</TIME_SYSTEM><MEAN_ELEMENT_THEORY>SGP4</MEAN_ELEMENT_THEORY></metadata><data><meanElements><EPOCH>2024-10-14T20:38:37.460256</EPOCH><MEAN_MOTION>14.55741812</MEAN_MOTION><ECCENTRICITY>.0016983</ECCENTRICITY><INCLINATION>47.0031</INCLINATION><RA_OF_ASC_NODE>125.9780</RA_OF_ASC_NODE><ARG_OF_PERICENTER>166.4130</ARG_OF_PERICENTER><MEAN_ANOMALY>193.7215</MEAN_ANOMALY></meanElements><tleParameters><EPHEMERIS_TYPE>0</EPHEMERIS_TYPE><CLASSIFICATION_TYPE>U</CLASSIFICATION_TYPE><NORAD_CAT_ID>40090</NORAD_CAT_ID><ELEMENT_SET_NO>999</ELEMENT_SET_NO><REV_AT_EPOCH>54486</REV_AT_EPOCH><BSTAR>.4383E-3</BSTAR><MEAN_MOTION_DOT>.1771E-4</MEAN_MOTION_DOT><MEAN_MOTION_DDOT>0</MEAN_MOTION_DDOT></tleParameters></data></segment></body></omm>

</ndm>
