ORBCOMM FM37            
1 33064U 08031E   24288.84533782  .00004791  00000+0  68840-3 0  9991
2 33064  48.4394  68.4551 0004933  36.2931 121.7115 14.77789874877734
ORBCOMM FM40            
1 33065U 08031F   24288.75069188  .00006007  00000+0  82278-3 0  9999
2 33065  48.4419  56.5928 0006045  46.5030  95.6468 14.79462887877788
VESSELSAT 1             
1 37840U 11058C   24288.82967233  .00000587  00000+0  17613-3 0  9991
2 37840  19.9608 138.4311 0013658   8.1571 351.9054 14.11236256671601
ORBCOMM FM109           
1 40086U 14040A   24288.82546762  .00002026  00000+0  47972-3 0  9992
2 40086  47.0019  94.4157 0002696 260.0537 100.0044 14.57348487545269
ORBCOMM FM107           
1 40087U 14040B   24288.86105747  .00002288  00000+0  53755-3 0  9997
2 40087  47.0033  95.2529 0002116 239.1067 120.9610 14.57291918545345
ORBCOMM FM106           
1 40088U 14040C   24288.74559123  .00002879  00000+0  52830-3 0  9995
2 40088  47.0598 297.1775 0017949   4.3556 355.7487 14.67993310547396
ORBCOMM FM111           
1 40089U 14040D   24288.86435731  .00006387  00000+0  78689-3 0  9995
2 40089  47.0024 178.6807 0031766 100.9275 259.5197 14.83450016553760
ORBCOMM FM104           
1 40090U 14040E   24288.86015579  .00001771  00000+0  43830-3 0  9993
2 40090  47.0031 125.9780 0016983 166.4130 193.7215 14.55741812544863
